Name,Suburb,Street,Longitude,Latitude,Opens,Closes,Website,Phone,
Ресторан Буре Срна,Karposh 3,Nikola Rusinski,21.3936186,42.0045887,08:00,00:00,https://buresrna.mk/,38923066676,
Македонска куќа,Kozle,Mitropolit Teodosij Gologanov,21.4021466750278,41.9960393,08:00,24:00,http://www.makedonskakuka.com/en/skopje.php,Unknown,
Sushi Ко,Debar Maalo,Leninova,21.4239688671865,41.99968945,12:00,23:00,http://www.sushico.mk,+389 2 3217874,
Лира,Karposh 1,Nikola Tesla,21.4107452643245,42.00603985,09:00,24:00,http://www.lyra.com.mk/,+389 2 3061726,
Ресторан Маргер,Karposh 1,Boulevard Ilinden,21.4140163906112,42.00819955,08:00,24:00,http://www.marger.com.mk,+389 78 685 086,+389 23 067 428
Скара Бар,Taftalidzhe 1,Варшавска,21.3924371105775,42.00170455,08:00,24:00,http://skarabar.mk/,+389 75 727110,
Јавна Соба,Vodno,50 Divizija,21.4259580991788,41.9898962,08:00,24:00,http://publicroom.org/contact.html,+389 2 6092650,
Restoran Olive,Taftalidzhe 1,Pariska,21.40142545,42.0013528,09:00,24:00,https://www.facebook.com/olive.skopje/,+389 (0)2 3 06 66 23,
Кај Џино,Madzhir Maalo,Паркинг ГТЦ,21.4342799,41.9943261,08:00,24:00,http://www.restorangino.mk/,+389 2 3121109,
Pastel Wine & Dine,Kapishtec,Kliment Ohridski Boulevard,21.4245254,41.9947645,06:30,21:00,http://pastel.mk/,+389 2 3214447,
Дестан,Debar Maalo,Владимир Полежановски,21.4204158,41.9987513,09:00,23:00,https://destan.mk/pocetna/,38923127324,
Пивница АН,Madzhir Maalo,Gradiste,21.4366005,42.0000179,09:00,24:00,http://pivnicaan.mk/,+389 02 321 2111,
Trend Food Bar,Karposh 3,Boulevard Partizanski Odredi,21.3909265,42.0041936,Unknown,Unknown,http://www.caffetrend.mk/,+389 70 306425,
Пекинг Гарден,Debar Maalo,Maksim Gorki,21.4301301,41.9957324,11:00,24:00,www.pekinggarden.mk,+389 2 3221173,
Amigos Мексиканска Кантина,Debar Maalo,Makedonija,21.4300742,41.9933026,08:00,24:00,http://www.amigos.com.mk/,+389 71 230314,
Ch2pter,Karposh 4,Ljubljanska,21.3862677,42.004606,Unknown,Unknown,http://www.caffetrend.mk/,+389 75 490 155,
Македонска куќа,Kozle,Mitropolit Teodosij Gologanov,21.4021635,41.9959806,08:00,00:00,http://www.makedonskakuka.com,38923296415,
7 Скара Ресторан,Debar Maalo,Dame Gruev,21.4276093,41.9948293,08:00,24:00,http://7.mk/skara-restoran/,38923224000,
Мезе Бар,Ostrovo,Bulevar Kuzman Josifovski Pitu,21.4492023,41.9899769,08:00,01:00,https://www.facebook.com/mezebarskopjanka/,38926121214,
Веган365Кујна,Debar Maalo,Bulevard Kliment Ohridski,21.4263142,41.9992458,09:00,17:00,https://vegan365kitchen.com/,+389 75 585 255,
Paradise Food,Debar Maalo,Dame Gruev,21.4276555,41.9942708,08:00,20:00,https://www.facebook.com/paradisefood.mk/,+389 76 424 104,
Стара куќа,Madzhir Maalo,Пајко Маало,21.4384354,41.99683675,Unknown,Unknown,http://starakuka.com.mk/,+389 2 3131376,
Пелистер,Debar Maalo,Macedonia Square,21.4315704,41.9953933,07:00,00:00,https://www.pelisterhotel.com.mk/,Unknown,
Дукат,Kapishtec,Mitroplit Teodosij Gologanov,21.4130078275252,41.9948987,08:00,24:00,Unknown,+389 2 3211011,
Ресторан 14,Taftalidzhe 1,Londonska,21.39186715,42.0018539,Unknown,Unknown,http://www.restoran14.com.mk/,+389 2 3076411,
Корнер / Баба Цана,Vodno,Партенија Зографски,21.4198223196292,41.986792,Unknown,Unknown,Unknown,38923126390,38970386589
Skopski Merak,Debar Maalo,Дебарца,21.4198115079114,42.00104315,00:00,01:00,http://www.skopskimerak.mk/,Unknown,
Гурмет,Debar Maalo,Отон Жупанчич,21.4209250080777,42.00125395,09:00,24:00,Unknown,Unknown,
My Space cafe,Kapishtec,Народен Фронт,21.42094245,41.99280735,08:00,01:00,https://www.facebook.com/pages/My-Space-caf%C3%A9/150915781656629?ref=aymt_homepage_panel,Unknown,
Рустикана,Karposh 2,Римска,21.4078483,41.9997295,10:00,00:00,Unknown,38971383382,
Бела виста,Madzhir Maalo,Kej 13 Noemvri,21.4347685,41.9953199,10:00,24:00,www.bellavistaskopje.mk,Unknown,
Ла Тераца,Debar Maalo,11 Oktomvri,21.4317257,41.9950911,08:00,24:00,Unknown,+389 2 3113380,
Campione lounge Bar,Jane Sandanski,Bulevard Jane Sandanski,21.4667276,41.9856123,08:00,01:00,Unknown,+389 70 250 261,
Makedonska sofra,Madzhir Maalo,Bulevard Makedonija,21.4365756,41.9871974,08:00,01:00,Unknown,38978929010,
Thong Thai,Karposh 3,Boulevard Partizanski Odredi,21.3986642,42.0034137,10:00,01:00,Unknown,38971661234,
Te Flladi,Топанско Поле,Dzhon Kenedi,21.4378942,42.0131776,06:00,02:00,Unknown,38978324244,
Gostilnica Gurman,Vodno,Boulevard Majka Tereza,21.4223088,41.9916485,07:00,22:00,Unknown,38923176200,
Pizza Jakomo,Karposh 3,Nikola Rusinski,21.3931934,42.0044372,Unknown,Unknown,http://www.pizzajakomo.com/,37976338668,38978338668
Дебар Маало,Debar Maalo,Zhivko Chingo,21.4205747,42.0013292,08:00,00:30,Unknown,38976219654,
МЦМ Мезе Бар,Debar Maalo,Boulevard Ilinden,21.4235595,42.0023813,Unknown,Unknown,Unknown,38970250420,
"Кафана ""Дебар Маало""",Debar Maalo,Zhivko Chingo,21.4200655,42.0009079,08:00,00:00,Unknown,38971279660,
Joy Café & Bakery (Karposh),Karposh 1,Nikola Tesla,21.4109206,42.0055109,Unknown,Unknown,https://www.facebook.com/joycafeandbakery/,+389 2 307 6955,
Скадарлија,Karposh 1,Orce Nikolov,21.4147058,42.0046693,Unknown,Unknown,https://restoran-skadarlija-skopje.business.site/,38923052717,
Кај Вршац,Debar Maalo,Stoltemberg,21.423662,42.0053837,09:00,24:00,Unknown,38923117382,
Ка,Kapishtec,Митрополит Теодосиј Гологанов,21.4222040723053,41.995115,Unknown,Unknown,Unknown,38923214350,
Воденица,Kapishtec,Naroden Front,21.4131883296075,41.99482975,Unknown,Unknown,www.vodenicamulino.com.mk,Unknown,
Ден и Ноќ,Karposh 2,Skupi,21.4059057519519,42.01377435,Unknown,Unknown,http://www.replek.com.mk/DeniNok/zaNas.htm,Unknown,
Томче Софка,Debar Maalo,Јордан Хаџиконстантинов Џинот,21.4258128306003,42.00349285,Unknown,Unknown,http://hotelimakedonija.com.mk/mk/Hotel/62/Hotel-Tomce-Sofka-Skopje,Unknown,
Hunter’s Lodge “Kamnik”,Madzhari,Alexander of Macedon Boulevard,21.4871217,42.0072516,Unknown,Unknown,http://www.kamnik.com.mk/,Unknown,
Caffe Skopje,Debar Maalo,Makedonija,21.4310013,41.9952414,08:00,23:00,Unknown,Unknown,
Play Cafe,Debar Maalo,Makedonija,21.429836,41.992653,09:00,21:00,Unknown,Unknown,
Bistro Opera Pub,Madzhir Maalo,Goce Delčev Boulevard,21.4373453,41.9984414,Unknown,Unknown,Unknown,Unknown,
Синдикат,Debar Maalo,Orce Nikolov,21.4224135197326,42.0013472,09:00,01:00,Unknown,Unknown,
Барбакан,Karposh 2,Илинденска,21.4065101950611,42.00628045,08:00,01:00,Unknown,Unknown,
4 Angeli,Karposh 1,Ivan Agovski,21.4121648671141,42.004821,08:00,24:00,Unknown,Unknown,
Пицерија Либертас,Debar Maalo,Владимир Полежановски,21.4207447,41.9987097,Unknown,Unknown,Unknown,38970567295,
Up Cafe,Madzhir Maalo,11 Oktomvri,21.4324491,41.9950653,08:00,18:00,Unknown,Unknown,
Бруклински,Debar Maalo,Orce Nikolov,21.4252581,42.0001581,Unknown,Unknown,Unknown,+389 2 6091844,
Bocata,Debar Maalo,Nikola Vapcarov,21.4308204,41.9955477,08:00,23:00,Unknown,Unknown,
Coffee Factory 2,Debar Maalo,Makedonija,21.4308588,41.9949424,08:00,01:00,Unknown,Unknown,
Сокаче,Karposh 1,Dragan Gjakonovski Shpato,21.4145137,42.0051241,Unknown,Unknown,Unknown,Unknown,
Mon Frere,Dukjandzhik,Кавтанџиска,21.4370632,42.0017629,08:00,23:00,Unknown,Unknown,
Old Town,Dukjandzhik,Казанџиска,21.4368849,41.999241,10:00,22:00,Unknown,Unknown,
Nargile Cafe,Madzhir Maalo,Јорганџиска,21.4358699,42.0000003,10:00,22:00,Unknown,Unknown,
Telekom Trend Lounge Bar,Madzhir Maalo,Kej 13 Noemvri,21.4330712,41.9958677,08:00,24:00,Unknown,Unknown,
Bistro Skopje,Debar Maalo,Makedonija,21.4306195,41.9944452,09:00,21:00,Unknown,Unknown,
Gnezdo,Debar Maalo,Makedonija,21.430365,41.9938562,08:00,22:00,Unknown,Unknown,
Caffe Novo,Debar Maalo,Makedonija,21.4302256,41.9929701,09:00,22:00,Unknown,Unknown,
Caffe Bar Dolce Vita,Debar Maalo,Makedonija,21.4298707,41.9927362,09:00,21:00,Unknown,Unknown,
Corsso,Debar Maalo,Dame Gruev,21.4293734,41.9923772,Unknown,Unknown,Unknown,Unknown,
Destan,Madzhir Maalo,11 Oktomvri,21.4319604,41.9947506,08:00,23:00,Unknown,Unknown,
Brooklyn Lounge Bar,Karposh 4,Ljubljanska,21.3910004,42.0045421,Unknown,Unknown,Unknown,Unknown,
Носталгија,Kozle,Mitroplit Teodosij Gologanov,21.4099065,41.9953743,Unknown,Unknown,Unknown,38923060708,
Барбакан,Karposh 2,Илинденска,21.4063144,42.0062651,08:00,01:00,Unknown,Unknown,
The Gallery,Karposh 1,Franklin Ruzvelt,21.415006,42.0038265,07:30,24:00,Unknown,Unknown,
Жапон Кафе Бар,Karposh 1,Franklin Ruzvelt,21.415173,42.0040547,Unknown,Unknown,Unknown,Unknown,
Cafe Bela,Karposh 1,Franklin Ruzvelt,21.4146731,42.0042809,Unknown,Unknown,Unknown,Unknown,
бимекс,Karposh,Olympic Path,21.4093282,41.9748528,9:00,24:00,Unknown,Unknown,
DejaVu Lounge,Jane Sandanski,Bulevard Jane Sandanski,21.4661426,41.9859376,08:00,01:00,Unknown,Unknown,
Clique Bar,Dukjandzhik,Gradiste,21.4366103,41.9994358,Unknown,Unknown,Unknown,Unknown,
Гет Кафе,Pripor,Hristo Tatarchev,21.4448074,41.9728434,10:00,00:00,Unknown,Unknown,
Кантина,Debar Maalo,Радњанска,21.4191901,42.0005946,Unknown,Unknown,Unknown,Unknown,
Shisha,Dukjandzhik,Битпазарска,21.4375923,42.0011325,10:00,22:00,Unknown,Unknown,
Ubac,Vlae,Boulevard Partizanski Odredi,21.3678533,42.0084679,Unknown,Unknown,Unknown,38972555005,
Mikel,Debar Maalo,Boulevard Partizanski Odredi,21.4253762,41.9986406,Unknown,Unknown,https://www.facebook.com/vinylmk/,Unknown,
Kandi,Топанско Поле,Dzhon Kenedi,21.4341981,42.0128215,07:15,00:00,Unknown,Unknown,
Squeeze Me,Debar Maalo,Boulevard Blazhe Koneski,21.4284228,41.9971825,09:00,21:00,Unknown,Unknown,
k8,Madzhir Maalo,Gradiste,21.4361778,42.0002555,10:00,22:00,Unknown,Unknown,
Manda Coffee Bar,Debar Maalo,Vasil Glavinov,21.428439,41.9970171,09:00,21:00,Unknown,Unknown,
"Пицерија ""Дени""",Jane Sandanski,Bulevard Jane Sandanski,21.4670662,41.9856161,Unknown,Unknown,Unknown,38976346201,
La Pizza,Jane Sandanski,Bulevard Jane Sandanski,21.4681708,41.9819646,Unknown,Unknown,Unknown,38972575756,
Boomerang Shisha,Dukjandzhik,Казанџиска,21.4368049,41.9994044,Unknown,Unknown,Unknown,Unknown,
Сараево,Dukjandzhik,Битпазарска,21.4381319,42.0015097,07:30,19:00,Unknown,Unknown,
Home Brews,Debar Maalo,Vasil Iljoski,21.4297354,41.9973064,09:00,22:00,Unknown,Unknown,
Urban,Dukjandzhik,Битпазарска,21.4370091,41.9999671,Unknown,Unknown,Unknown,Unknown,
Coffe Tearoom Lachi,Madzhir Maalo,Gradiste,21.4364615,42.0003942,08:00,18:00,Unknown,Unknown,
Bomonti,Dukjandzhik,Битпазарска,21.4373153,41.999797,10:00,22:00,Unknown,Unknown,
Plaset,Dukjandzhik,Битпазарска,21.4382061,42.0016292,07:00,02:00,Unknown,Unknown,
Toto,Debar Maalo,Никола Тримпаре,21.4225095,41.9967222,08:00,01:00,Unknown,Unknown,
Shakespeare Cafe,Debar Maalo,Boulevard Partizanski Odredi,21.4234973,41.9981835,08:00,00:00,Unknown,Unknown,
Kairo,Dukjandzhik,Самарџиска,21.4385935,42.0030613,09:00,21:00,Unknown,Unknown,
Stay you,Debar Maalo,Makedonija,21.4304151,41.9940274,08:00,22:00,Unknown,Unknown,
JJ&S,Debar Maalo,Makedonija,21.4300488,41.9924937,09:00,21:00,Unknown,Unknown,
Mulliri,Madzhir Maalo,"Плоштад ""Карпошово Востание""",21.434633,41.9976507,11:00,23:00,Unknown,Unknown,
MIG,Debar Maalo,Makedonija,21.430389,41.9939851,09:00,21:00,Unknown,Unknown,
Gallery 7,Dukjandzhik,191,21.438158,42.0009497,09:00,21:00,Unknown,Unknown,
Рок Кафана Рустикана 2.0,Karposh 1,Boulevard Ilinden,21.4157772,42.0062237,10:00,24:00,Unknown,Unknown,
Cafe Barcelona,Debar Maalo,Makedonija,21.4297974,41.9932519,08:00,18:00,Unknown,Unknown,
Кај чичо 2,Karposh 4,Vich,21.3855189,42.0091204,09:00,24:00,Unknown,Unknown,
Кремисимо Трибина,Hipodrom,Улица 1640,21.5232371,41.9935483,Unknown,Unknown,https://cremissimo-tribina-lounge-bar.business.site/?utm_source=gmb&utm_medium=referral,Unknown,
Конструкта,Kapishtec,Vasil Gjorgov,21.4190587011504,41.9924237,Unknown,Unknown,Unknown,Unknown,
Ресторан 2 Златника,Kapishtec,Митрополит Теодосиј Гологанов,21.4237388,41.9953323,Unknown,Unknown,Unknown,Unknown,
Керпич,Debar Maalo,Дебарца,21.4226445704381,41.99735645,Unknown,Unknown,Unknown,Unknown,
Дане,Kapishtec,Kiro Krstevski - Platnik,21.4220935198211,41.99620235,Unknown,Unknown,Unknown,Unknown,
Ѓезме,Kapishtec,Костурски Херои,21.41828648662,41.99548425,Unknown,Unknown,Unknown,Unknown,
Мечос,Debar Maalo,Leninova,21.4229749825361,41.9990015,Unknown,Unknown,Unknown,Unknown,
Coffee Factory,Debar Maalo,Leninova,21.4235229312857,41.99910365,Unknown,Unknown,Unknown,Unknown,
Боними,Автокоманда,Трифун Хаџијанев,21.46223745,42.0030645,Unknown,Unknown,Unknown,Unknown,
Дојрана,Автокоманда,Интернационални Бригади,21.4598939564815,41.99796515,Unknown,Unknown,Unknown,Unknown,
Juice Bar,Debar Maalo,Leninova,21.4243073629608,42.00002195,Unknown,Unknown,Unknown,Unknown,
Балканика,Karposh 3,Велосипедска патека Кеј,21.4097243006681,42.00961975,Unknown,Unknown,Unknown,Unknown,
Уранија,Debar Maalo,Stoltemberg,21.42200985,42.006134,Unknown,Unknown,Unknown,Unknown,
Ѕвезден Океан,Debar Maalo,Лермонтова,21.4272510714061,41.99571355,Unknown,Unknown,Unknown,Unknown,
Љубов,Debar Maalo,Borka Taleski-Modernoto,21.4246142935832,41.9978684,Unknown,Unknown,Unknown,Unknown,
Manhattan Cafe,Debar Maalo,Leninova,21.4242078024415,41.9999119,Unknown,Unknown,Unknown,Unknown,
Рулет,Michurin,Симеон Кавракиров,21.4466299,41.9892137,Unknown,Unknown,Unknown,Unknown,
Sopotsko,Debar Maalo,Крсто Баиќ,21.4260666862773,42.00157875,Unknown,Unknown,Unknown,Unknown,
Kуќа,Madzhir Maalo,Mirche Acev,21.4374003,41.9931176,Unknown,Unknown,Unknown,Unknown,
Ресторан Кej,Madzhir Maalo,Kej 13 Noemvri,21.4414877190165,41.99444575,Unknown,Unknown,Unknown,Unknown,
Бравос,Debar Maalo,Goran Stefanovski,21.4145693443909,42.00005995,Unknown,Unknown,Unknown,Unknown,
Broz Cafe,Debar Maalo,Boulevard Partizanski Odredi,21.416703,42.0001541,Unknown,Unknown,Unknown,Unknown,
Od Nas Za Vas,Vodno,Zheleznichka,21.4296273306876,41.98912015,Unknown,Unknown,Unknown,Unknown,
Кашмир Арт Кафе,Debar Maalo,Никола Тримпаре,21.422097150765,41.99692865,Unknown,Unknown,Unknown,Unknown,
Калабалак,Centar,Пролет,21.4403079007697,41.98999165,Unknown,Unknown,Unknown,Unknown,
Фурна,Kozle,Mitroplit Teodosij Gologanov,21.40948495,41.9954379,Unknown,Unknown,Unknown,Unknown,
Излет,Debar Maalo,Мирослав Крлежа,21.4242939511191,41.99713915,Unknown,Unknown,Unknown,Unknown,
Интермецо,Kapishtec,Naroden Front,21.4140669,41.9947432,Unknown,Unknown,Unknown,Unknown,
Benneton,Kapishtec,Митрополит Теодосиј Гологанов,21.4232268,41.9948867,Unknown,Unknown,Unknown,Unknown,
AMG,Kapishtec,Митрополит Теодосиј Гологанов,21.4230113,41.9948604,Unknown,Unknown,Unknown,Unknown,
Strip,Debar Maalo,Dimitrie Chupovski,21.4253358,41.9955693,Unknown,Unknown,Unknown,Unknown,
Журнал,11 Oktomvri,Народни Херои,21.4438183,41.9768256,Unknown,Unknown,Unknown,Unknown,
Cafeteria,Karposh 2,Orce Nikolov,21.4082395,42.0051454,Unknown,Unknown,Unknown,Unknown,
Ла Тана,Centar,Пролет,21.4391941,41.98953225,Unknown,Unknown,Unknown,Unknown,
Амиго,Centar,Пролет,21.4394281430162,41.98972425,Unknown,Unknown,Unknown,Unknown,
Кај Злате,Centar,Пролет,21.4393638112662,41.98965085,Unknown,Unknown,Unknown,Unknown,
Галерија 7,Dukjandzhik,Битпазарска,21.4379661009364,42.00115065,Unknown,Unknown,Unknown,Unknown,
Под Кале,Debar Maalo,Лазар Личеноски,21.4307036,42.0047876,Unknown,Unknown,Unknown,Unknown,
Плаза де Торос,Madzhir Maalo,Kej 13 Noemvri,21.4350117,41.9952456,Unknown,Unknown,Unknown,Unknown,
9,Kapishtec,Naroden Front,21.4162239,41.9934306,Unknown,Unknown,Unknown,Unknown,
Мартини,Karposh 3,Boulevard Partizanski Odredi,21.3999451,42.0031059,Unknown,Unknown,Unknown,Unknown,
Бугати,Karposh 1,Kraguevska,21.4159604,42.0047028,Unknown,Unknown,Unknown,Unknown,
Erdi,Dukjandzhik,Сараевска,21.4458882506622,42.01143805,Unknown,Unknown,Unknown,Unknown,
Vesa,Dukjandzhik,Сараевска,21.4466106667056,42.0111411,Unknown,Unknown,Unknown,Unknown,
Alba,Dukjandzhik,Сараевска,21.4452476557533,42.01173705,Unknown,Unknown,Unknown,Unknown,
Dielli,Dukjandzhik,Св.Прохор Пчински,21.435363975,42.00821135,Unknown,Unknown,Unknown,Unknown,
Golden Mili,Dukjandzhik,Пере Тошев,21.435877575,42.01198505,Unknown,Unknown,Unknown,Unknown,
Кај Жабарот,Debar Maalo,Enver Malikji Bridge,21.4287438654877,42.0013885,Unknown,Unknown,Unknown,Unknown,
Гостилница Мерак,Автокоманда,Благоја Стефковски,21.4791372461455,42.0033525,Unknown,Unknown,Unknown,Unknown,
Читална,Debar Maalo,Mihail Cokov,21.4220948,42.00232545,Unknown,Unknown,Unknown,Unknown,
Чардак,Debar Maalo,Georgi Peshkov,21.422178842829,42.00204315,Unknown,Unknown,Unknown,Unknown,
Наша софра,Debar Maalo,Zhivko Chingo,21.4202965442628,42.00091895,Unknown,Unknown,Unknown,Unknown,
Дебар Маало,Debar Maalo,Orce Nikolov,21.4204840600232,42.00159005,Unknown,Unknown,Unknown,Unknown,
Наџак,Debar Maalo,Miroslav Krlezha,21.4214709753376,42.00140885,Unknown,Unknown,Unknown,Unknown,
Kancelarija,Debar Maalo,Georgi Peshkov,21.42224415,42.00165025,Unknown,Unknown,Unknown,Unknown,
Чамо,Debar Maalo,Georgi Peshkov,21.4220786619269,42.00214185,Unknown,Unknown,Unknown,Unknown,
Ganza,Debar Maalo,Georgi Peshkov,21.42228875,42.0021744,Unknown,Unknown,Unknown,Unknown,
Antica,Debar Maalo,Дебарца,21.4194825029299,42.0012245,Unknown,Unknown,Unknown,Unknown,
цреша бар,Debar Maalo,Rajko Zhinzifov,21.4188029973713,41.9986791,Unknown,Unknown,Unknown,Unknown,
Скандал,Kapishtec,Митрополит Теодосиј Гологанов,21.42125435,41.994706,Unknown,Unknown,Unknown,Unknown,
Лајт кафе,Kapishtec,Митрополит Теодосиј Гологанов,21.4209868463442,41.99467605,Unknown,Unknown,Unknown,Unknown,
Кремисимо 2,Dukjandzhik,Alexander of Macedon Boulevard,21.45801025,42.00073595,Unknown,Unknown,Unknown,Unknown,
Енрико,Karposh 3,Boulevard Partizanski Odredi,21.3995191,42.0031464,Unknown,Unknown,Unknown,Unknown,
Trend,Jane Sandanski,Bulevard Jane Sandanski,21.4642247482178,41.9860545,Unknown,Unknown,Unknown,Unknown,
La Cafetaria,Karposh 2,Илинденска,21.4066353760438,42.00637465,Unknown,Unknown,Unknown,Unknown,
Драмски Кафе Бар,Karposh 2,Шекспирова,21.4074755557059,42.00223895,Unknown,Unknown,Unknown,Unknown,
Prince,Топанско Поле,Ferid Murati,21.4349372,42.0198926,Unknown,Unknown,Unknown,Unknown,
Две капки,Taftalidzhe 1,Хелсинки,21.3926682,42.0028498,Unknown,Unknown,Unknown,Unknown,
Ваташа пекара,Kisela Voda,Борис Трајковски,21.4919248674977,41.9519549,Unknown,Unknown,Unknown,Unknown,
Везилка,Пинтија,Boris Trajkovski,21.4693340534156,41.9671439,Unknown,Unknown,Unknown,Unknown,
Дениција,Пинтија,Boris Trajkovski,21.4691120792743,41.9672654,Unknown,Unknown,Unknown,Unknown,
иВ,Cvetan Dimov,Булевар Македонија,21.4368796,41.9869006,Unknown,Unknown,Unknown,Unknown,
Куц у Кец (Панда),Gorno Lisiche,Тодор Чангов 20,21.4852525469105,41.97572495,Unknown,Unknown,Unknown,Unknown,
Туpиcт,Madzhir Maalo,Gradiste,21.4367576,42.0003099,Unknown,Unknown,Unknown,Unknown,
Кафе Змија,Debar Maalo,Blagoj Davkov,21.417262,42.0009888,Unknown,Unknown,Unknown,Unknown,
Кафе Филипос,Debar Maalo,Blagoj Davkov,21.4175044,42.0007963,Unknown,Unknown,Unknown,Unknown,
Топаз,Karposh 1,Franklin Ruzvelt,21.4122694,41.9979155,Unknown,Unknown,Unknown,Unknown,
Веки,Taftalidzhe 1,Варшавска,21.3989291,42.000855,Unknown,Unknown,Unknown,Unknown,
Велково Меанче,Chento,Палмиро Тољати,21.4960141,42.0013936,Unknown,Unknown,Unknown,Unknown,
Чешма,Cvetan Dimov,Boris Trajkovski,21.4390455,41.9841333,Unknown,Unknown,Unknown,Unknown,
Ресторан Трпеза,Pripor,Hristo Tatarchev,21.4455687,41.9710708,Unknown,Unknown,Unknown,Unknown,
Ресторан Кум,Cvetan Dimov,Георги Димитров,21.4385091,41.9787578,Unknown,Unknown,Unknown,Unknown,
Боеми,Kapishtec,Владимир Полежановски,21.415982,41.9985008,Unknown,Unknown,Unknown,Unknown,
Ресторан Рагуза 919,Gorno Lisiche,Тодор Чангов 15,21.4820381,41.9782792,Unknown,Unknown,Unknown,Unknown,
Старо Буре,Karposh 3,Boulevard Partizanski Odredi,21.3975417,42.0035286,Unknown,Unknown,Unknown,Unknown,
62,Vlae,Esperanto,21.3741187,42.0065185,Unknown,Unknown,Unknown,Unknown,
Fluid,Karposh 3,Boulevard Partizanski Odredi,21.398346,42.0034224,Unknown,Unknown,Unknown,Unknown,
Рибен ресторан Рибар (Одисеја),Novo Lisiche,Тодор Чангов 51,21.4871492,41.9843967,Unknown,Unknown,Unknown,Unknown,
Крчма,Kapishtec,Naroden Front,21.4151525,41.9946274,Unknown,Unknown,Unknown,Unknown,
Marana,Vodno,Boulevard Majka Tereza,21.4204907,41.9904847,Unknown,Unknown,Unknown,Unknown,
511,Kapishtec,Козара,21.4163482,41.9922398,Unknown,Unknown,Unknown,Unknown,
Ли,Karposh 1,Атинска,21.4091295,41.997291,Unknown,Unknown,Unknown,Unknown,
Акорд,Karposh 2,Ankarska,21.4086601,41.9972291,Unknown,Unknown,Unknown,Unknown,
Ексклузив,11 Oktomvri,1511,21.4456487,41.9775109,Unknown,Unknown,Unknown,Unknown,
Red Caffe,Ostrovo,Vladimir Komarov,21.4504664,41.9915282,Unknown,Unknown,Unknown,Unknown,
Тица - Елени,Автокоманда,Alexander of Macedon Boulevard,21.4647397,42.0019716,Unknown,Unknown,Unknown,Unknown,
Аристократ кафе,Автокоманда,Јани Лукровски,21.4644629,42.0026068,Unknown,Unknown,Unknown,Unknown,
Тренд,Debar Maalo,Maksim Gorki,21.4304595,41.9957062,Unknown,Unknown,Unknown,Unknown,
Outlet Concept Store,Karposh 3,8 Septemvri,21.403605,42.0092296,Unknown,Unknown,Unknown,Unknown,
Ана Кристи,Karposh 3,Nikola Rusinski,21.3995909,42.0034064,Unknown,Unknown,Unknown,Unknown,
Фотка,Taftalidzhe 1,Helsinki,21.3992299,42.0017742,Unknown,Unknown,Unknown,Unknown,
Кафе Писта,Novo Lisiche,АСНОМ,21.4768613,41.9897212,Unknown,Unknown,Unknown,Unknown,
Кафе Мамбо,Novo Lisiche,АСНОМ,21.4758817,41.9894222,Unknown,Unknown,Unknown,Unknown,
Balila,Kapishtec,Козара,21.416522,41.9922245,Unknown,Unknown,Unknown,Unknown,
Бифиња - Рамстор,Kapishtec,Sv. Kiril i Metodij,21.4280088,41.9913688,Unknown,Unknown,Unknown,Unknown,
Два Елена,Kozle,Zagrepska,21.4080594,41.993167,Unknown,Unknown,Unknown,Unknown,
Badu,Vlae,Boulevard Partizanski Odredi,21.3722969,42.0071574,Unknown,Unknown,Unknown,Unknown,
Арабеска,Debar Maalo,Nikola Vapcarov,21.4302915,41.9952825,Unknown,Unknown,Unknown,Unknown,
Ореов Лад,Saraj,Улица 1,21.3323916,42.003391,Unknown,Unknown,Unknown,Unknown,
Фиш,Karposh 1,Скупи 3A,21.4117168,42.0131608,Unknown,Unknown,Unknown,Unknown,
Quatro Caffe,11 Oktomvri,Дебарска,21.446234,41.9734649,Unknown,Unknown,Unknown,Unknown,
Bass Cafe,11 Oktomvri,Дебарска,21.4456656,41.9732771,Unknown,Unknown,Unknown,Unknown,
Градина,Пинтија,Boris Trajkovski,21.4727082,41.9650429,Unknown,Unknown,Unknown,Unknown,
Палма,Ostrovo,Bulevard Jane Sandanski,21.4534598,41.9885844,Unknown,Unknown,Unknown,Unknown,
Every Day,Ostrovo,Novoproektirana,21.4522729,41.9914536,Unknown,Unknown,Unknown,Unknown,
Damaskino,Debar Maalo,Makedonija,21.4297981,41.9925716,Unknown,Unknown,Unknown,Unknown,
Dal Fufo - Galija,Kapishtec,50 Divizija,21.4231542,41.9917018,Unknown,Unknown,Unknown,Unknown,
MonAmi,Karposh 1,Franklin Ruzvelt,21.4151255,42.0039722,Unknown,Unknown,Unknown,Unknown,
Еснаф кај даре,Kapishtec,Borka Taleski-Modernoto,21.4170693,41.997226,Unknown,Unknown,Unknown,Unknown,
Play Cafe,Karposh 3,Boulevard Partizanski Odredi,21.3921091,42.0038662,Unknown,Unknown,Unknown,Unknown,
Концепт37,Karposh 1,Franklin Ruzvelt,21.4127725,41.999411,Unknown,Unknown,Unknown,Unknown,
Pizza Amica,Реонски Центар Аеродром,Булевар Видое Смилевски Бато,21.4725098,41.9824716,Unknown,Unknown,Unknown,Unknown,
Лезет,Centar,Пролет,21.4427246,41.9922973,Unknown,Unknown,Unknown,Unknown,
Кај Злате,Centar,Пролет,21.4422139,41.9922032,Unknown,Unknown,Unknown,Unknown,
бед бунар,Karposh 3,Boulevard Ilinden,21.4010837,42.0084895,Unknown,Unknown,Unknown,Unknown,
Авантура,Kapishtec,Naroden Front,21.4171739,41.9937283,Unknown,Unknown,Unknown,Unknown,
Sky ресторанот,Madzhir Maalo,Kej Dimitar Vlahov,21.434577,41.9973163,Unknown,Unknown,Unknown,Unknown,
Соул кичен,Madzhir Maalo,Kej 13 Noemvri,21.4338587,41.9955972,Unknown,Unknown,Unknown,Unknown,
Tonnis Bakeri,Zlokukjani,Skupi,21.3990452,42.0151641,Unknown,Unknown,Unknown,Unknown,
Coffeeshop Company lounge,Zlokukjani,Skupi,21.404147,42.0137478,Unknown,Unknown,Unknown,Unknown,
Belier,Debar Maalo,Владимир Полежановски,21.4168806,41.9984995,Unknown,Unknown,Unknown,Unknown,
Beta,Butel 2,Македонско Косовска бригада,21.4307185,42.0229923,Unknown,Unknown,Unknown,Unknown,
Juicy and Co,Karposh 4,Ljubljanska,21.3910392,42.0048738,Unknown,Unknown,Unknown,Unknown,
Лавче,Kapishtec,Borka Taleski-Modernoto,21.4160063,41.9969599,Unknown,Unknown,Unknown,Unknown,
Бабе,Karposh 3,Boulevard Partizanski Odredi,21.4002154,42.0030463,Unknown,Unknown,Unknown,Unknown,
Златна вилушка,Jane Sandanski,Булевар Асном,21.4655483,41.9915744,Unknown,Unknown,Unknown,Unknown,
Prikazna,Karposh 3,Boulevard Partizanski Odredi,21.3981384,42.0033204,Unknown,Unknown,Unknown,Unknown,
"Lounge Bar & Restaurant ""Square 21""",Debar Maalo,Makedonija,21.4301208,41.9927317,Unknown,Unknown,Unknown,Unknown,
Ресторан Златник,Gorno Lisiche,Тодор Чангов 19,21.4826074,41.9788465,Unknown,Unknown,Unknown,Unknown,
еквестријан,Ostrovo,Bulevar Kuzman Josifovski Pitu,21.4520843,41.9883207,Unknown,Unknown,Unknown,Unknown,
Kaj Serdarot,Dukjandzhik,Gradiste,21.4362461,41.9996618,Unknown,Unknown,Unknown,Unknown,
Destan,Dukjandzhik,Салих Асим,21.436081,41.9996701,Unknown,Unknown,Unknown,Unknown,
Австриска палта,Madzhir Maalo,Салих Асим,21.4355402,41.9994953,Unknown,Unknown,Unknown,Unknown,
Амика,Madzhir Maalo,Kej 13 Noemvri,21.4355402,41.9949989,Unknown,Unknown,Unknown,Unknown,
Four,Karposh 3,Велосипедска патека Кеј,21.427293,42.0059792,Unknown,Unknown,Unknown,Unknown,
Дион,Madzhir Maalo,Kej 13 Noemvri,21.4335119,41.995703,Unknown,Unknown,Unknown,Unknown,
Кај Тоше на Ќоше,Автокоманда,Јани Лукровски,21.4648097,42.0030521,Unknown,Unknown,Unknown,Unknown,
Гостилница Софра,Hipodrom,Париска Комуна,21.5078989,41.9932328,Unknown,Unknown,Unknown,Unknown,
Пицерија Кремисимо,Hipodrom,Валандовска,21.5099084,41.9951884,Unknown,Unknown,Unknown,Unknown,
Dojrana Skopje,Автокоманда,Интернационални Бригади,21.4600445,41.9978436,Unknown,Unknown,Unknown,Unknown,
Крин,Debar Maalo,Liberty Square,21.4271773,41.9954521,Unknown,Unknown,Unknown,Unknown,
Т'га за југ,Jane Sandanski,Булевар Асном,21.4640869,41.9913259,Unknown,Unknown,Unknown,Unknown,
Бизнис,Топанско Поле,Ресенска,21.4412533,42.0195979,Unknown,Unknown,Unknown,Unknown,
Парк,Karposh 3,Велосипедска патека Кеј,21.4280925,42.0039853,Unknown,Unknown,Unknown,Unknown,
Пицерија Фамилија,Jane Sandanski,Булевар Асном,21.4633394,41.9914306,Unknown,Unknown,Unknown,Unknown,
GARDEN,Оризари,Gjorche Petrov,21.3328887,42.0068376,09:00,00:00,Unknown,+389 78 239 711,
Изи,Kapishtec,Vasil Gjorgov,21.4192046,41.9927714,Unknown,Unknown,Unknown,Unknown,
Баба Цана,Vodno,Партенија Зографски,21.4193986,41.9868025,Unknown,Unknown,Unknown,Unknown,
Laika,Debar Maalo,Miroslav Krlezha,21.4216953,42.0013652,Unknown,Unknown,Unknown,Unknown,
Еу ејџ,Debar Maalo,Коста Шахов,21.4230134,41.9958526,Unknown,Unknown,Unknown,Unknown,
Star Ocean,Kapishtec,Sv. Kiril i Metodij,21.4276864,41.9913338,Unknown,Unknown,Unknown,Unknown,
63,11 Oktomvri,Народни Херои,21.4444199,41.9768128,Unknown,Unknown,Unknown,Unknown,
Fitness house,Debar Maalo,Boulevard Partizanski Odredi,21.4149006,42.0005187,Unknown,Unknown,Unknown,Unknown,
Giovani,Karposh 3,Nikola Rusinski,21.3991821,42.0034483,Unknown,Unknown,Unknown,Unknown,
Segreto Plus,Novo Lisiche,АСНОМ,21.4808444,41.9837709,Unknown,Unknown,Unknown,Unknown,
Кахава,Debar Maalo,Mihail Cokov,21.4218407,42.0023198,Unknown,Unknown,Unknown,Unknown,
кај сердарот,Dukjandzhik,Gradiste,21.4366123,41.9995926,Unknown,Unknown,Unknown,Unknown,
Тарапана,11 Oktomvri,Улица-4,21.4565032,41.9729164,Unknown,Unknown,Unknown,Unknown,
Централ Парк,Karposh 3,Велосипедска патека Кеј,21.4181784,42.0087916,Unknown,Unknown,Unknown,Unknown,
Костарика,Debar Maalo,Risto Shishkov,21.4239655,42.0028235,Unknown,Unknown,Unknown,Unknown,
Калабалак,Debar Maalo,Наум Наумовски Борче,21.4242333,42.003366,Unknown,Unknown,Unknown,Unknown,
Старо Скупи,Debar Maalo,Risto Shishkov,21.4240111,42.0028813,Unknown,Unknown,Unknown,Unknown,
Занзибар,Debar Maalo,Наум Наумовски Борче,21.4240218,42.0030128,Unknown,Unknown,Unknown,Unknown,
Идадија,Debar Maalo,Zhivko Chingo,21.4210921,42.0013712,Unknown,Unknown,Unknown,Unknown,
Наџак,Debar Maalo,Miroslav Krlezha,21.4214837,42.001453,Unknown,Unknown,Unknown,Unknown,
Zing,Debar Maalo,Отон Жупанчич,21.4206632,42.0010941,Unknown,Unknown,Unknown,Unknown,
Дебар Маало,Debar Maalo,Zhivko Chingo,21.420049,42.0007591,Unknown,Unknown,Unknown,Unknown,
Кај Перо,Debar Maalo,Zhivko Chingo,21.4208615,42.0014888,Unknown,Unknown,Unknown,Unknown,
DejaVu,Kapishtec,Sv. Kiril i Metodij,21.4264143,41.9922468,Unknown,Unknown,Unknown,Unknown,
Istanbul,Kapishtec,Sv. Kiril i Metodij,21.4266738,41.9922273,Unknown,Unknown,Unknown,Unknown,
Gostilnica Estel,Debar Maalo,Leninova,21.4236496,41.9990664,Unknown,Unknown,Unknown,Unknown,
Aleksandrija,Vlae,Esperanto,21.3740403,42.0063483,Unknown,Unknown,Unknown,Unknown,
СНОШТИ МИНАВ,Dukjandzhik,Gradiste,21.4361151,41.9995917,Unknown,Unknown,Unknown,Unknown,
Буре,Karposh 3,Boulevard Partizanski Odredi,21.4001853,42.0031615,Unknown,Unknown,Unknown,Unknown,
Pçela,Madzhir Maalo,Gradiste,21.4371953,42.0002786,Unknown,Unknown,Unknown,Unknown,
Paladin M,Debar Maalo,Boulevard Partizanski Odredi,21.4158769,42.0003534,Unknown,Unknown,Unknown,Unknown,
Woodstock,Karposh 1,Mitroplit Teodosij Gologanov,21.4113199,41.9956401,Unknown,Unknown,Unknown,Unknown,
Воденица,Kapishtec,Naroden Front,21.4135121,41.9947932,Unknown,Unknown,Unknown,Unknown,
Led Zeppelin,Karposh 3,Nikola Rusinski,21.3970638,42.0038026,Unknown,Unknown,Unknown,Unknown,
Restoran Frosina,Kapishtec,Kiro Krstevski - Platnik,21.4199442,41.9959518,Unknown,Unknown,Unknown,Unknown,
Sugarland,Karposh 3,Boulevard Partizanski Odredi,21.3994796,42.0030494,Unknown,Unknown,Unknown,Unknown,
Krem,Karposh 3,Nikola Rusinski,21.393778,42.004566,Unknown,Unknown,Unknown,Unknown,
Gala Kujna,Michurin,3 Makedonska Brigada,21.4520444,41.9826324,Unknown,Unknown,Unknown,Unknown,
EZO,Butel 1,Бутелска,21.4462164,42.0365961,Unknown,Unknown,Unknown,Unknown,
Меана Б Јавор Мрзенци,Karposh 2,Скупи 3A,21.4100468,42.0127048,Unknown,Unknown,Unknown,Unknown,
fourplay,Debar Maalo,Orce Nikolov,21.423008,42.0012294,Unknown,Unknown,Unknown,Unknown,
Kaj Гоце,Dukjandzhik,Gradiste,21.4362086,41.9996644,Unknown,Unknown,Unknown,Unknown,
Coffee O'Clock,Vodno,Zheleznichka,21.4260361,41.9907255,Unknown,Unknown,Unknown,Unknown,
Kebapčilinica Rio,Dukjandzhik,Казанџиска,21.4360459,41.999319,Unknown,Unknown,Unknown,Unknown,
Vega,Karposh 1,Franklin Ruzvelt,21.4131738,41.9995518,Unknown,Unknown,Unknown,Unknown,
Tako mako,Dukjandzhik,Салих Асим,21.4364213,42.0006226,Unknown,Unknown,Unknown,Unknown,
Ohrid,Dukjandzhik,Битпазарска,21.4372514,42.0003594,Unknown,Unknown,Unknown,Unknown,
Markt kitchen,Debar Maalo,Vasil Glavinov,21.4285563,41.9969456,Unknown,Unknown,Unknown,Unknown,
Sac,Dukjandzhik,Битпазарска,21.4374652,42.0002543,Unknown,Unknown,Unknown,Unknown,
Skopsko,Debar Maalo,Georgi Peshkov,21.4224937,42.0019483,Unknown,Unknown,Unknown,Unknown,
Palas,Dukjandzhik,Евлија Челебија,21.4385882,42.002112,Unknown,Unknown,Unknown,Unknown,
Schpajs,Debar Maalo,Georgi Peshkov,21.4219242,42.0017089,Unknown,Unknown,Unknown,Unknown,
Don Giovanni,Dukjandzhik,Салих Асим,21.436443,42.0005272,Unknown,Unknown,Unknown,Unknown,
Concept,Dukjandzhik,Битпазарска,21.4373399,41.9999786,Unknown,Unknown,Unknown,Unknown,
Млечен Бар,Karposh 2,Ankarska,21.4086507,41.9971719,Unknown,Unknown,Unknown,Unknown,
Букет,Kapishtec,Kliment Ohridski Boulevard,21.4244578,41.9945241,Unknown,Unknown,Unknown,Unknown,
Mosh,Debar Maalo,Дебарца,21.4243264,41.9963262,Unknown,Unknown,Unknown,Unknown,
Juicy&co,Debar Maalo,Borka Taleski-Modernoto,21.4223059,41.9974479,Unknown,Unknown,Unknown,Unknown,
Зафир,Debar Maalo,Радњанска,21.4192379,42.0005998,Unknown,Unknown,Unknown,Unknown,
Majahh,Debar Maalo,Mihail Cokov,21.4222629,42.0023667,Unknown,Unknown,Unknown,Unknown,
Metzka,Debar Maalo,Дане Крапчев,21.4186405,42.0026188,Unknown,Unknown,Unknown,Unknown,
Davidoff,Kapishtec,Kliment Ohridski Boulevard,21.4243092,41.9942446,Unknown,Unknown,Unknown,Unknown,
Pizzeria Bik,Dukjandzhik,Петре Георгиев,21.4415279,42.0027517,Unknown,Unknown,Unknown,Unknown,
Old Balkan,Dukjandzhik,191,21.4380383,42.0011296,Unknown,Unknown,Unknown,Unknown,
Sultan Kejf,Dukjandzhik,Петре Георгиев,21.4402065,42.0027827,Unknown,Unknown,Unknown,Unknown,
Kursumli An,Dukjandzhik,Атанас Бабата,21.4371206,42.0025774,Unknown,Unknown,Unknown,Unknown,
Буре лептокарија,Karposh 3,Boulevard Partizanski Odredi,21.4009703,42.0030579,Unknown,Unknown,Unknown,Unknown,
Ресторан Национал,Madzhir Maalo,Stiv Naumov,21.4352029,41.993295,Unknown,Unknown,Unknown,Unknown,
Кај Јоле,Debar Maalo,Maksim Gorki,21.4283137,41.996324,Unknown,Unknown,Unknown,Unknown,
Рузвелт,Karposh 1,Даскал Камче,21.413452,42.0019011,Unknown,Unknown,Unknown,Unknown,
Сидро,Karposh 1,Атинска,21.4097614,41.9974684,Unknown,Unknown,Unknown,Unknown,
Joy Café & Bakery (Centar),Debar Maalo,Makedonija,21.430208,41.9929511,Unknown,Unknown,Unknown,Unknown,
Equilibrium,Old Aerodrom,Rudi Chajevac,21.4542028,41.9866451,Unknown,Unknown,Unknown,Unknown,
Plato Coffee 2.0,Kozle,Њуделхиска,21.405925,41.998628,Unknown,Unknown,Unknown,Unknown,
Mexican street food,Debar Maalo,Boulevard Partizanski Odredi,21.4142957,42.0006689,Unknown,Unknown,Unknown,Unknown,
Boko,Kapishtec,Костурски Херои,21.4171327,41.997055,Unknown,Unknown,Unknown,Unknown,
Lafe,Kapishtec,Kliment Ohridski Boulevard,21.4245361,41.9949215,Unknown,Unknown,Unknown,Unknown,
Coffee corner,Madzhir Maalo,Лазар Танев,21.4355656,42.0010222,Unknown,Unknown,Unknown,Unknown,
Потковица,Hipodrom,Улица 1640,21.5230582,41.993367,Unknown,Unknown,Unknown,Unknown,
Cafe Jabolko,Madzhir Maalo,Bulevar Kuzman Josifovski Pitu,21.4454673,41.9911127,06:00,22:00,Unknown,Unknown,
BistRaw,Debar Maalo,Наум Наумовски Борче,21.4238693,41.9988648,12:00,20:00,Unknown,Unknown,
Kosmos,Dukjandzhik,Покриена Чаршија,21.4383067,42.0025666,07:00,22:00,Unknown,Unknown,
Drip Coffee (Specialty Coffee),Kapishtec,Елисие Поповски Марко,21.4147527,41.9906887,07:30,18:00,Unknown,Unknown,
Short bus,Debar Maalo,Boulevard Partizanski Odredi,21.4246771,41.9979406,09:00,00:00,Unknown,Unknown,
Cafe Gorki,Debar Maalo,Vasil Glavinov,21.42807882847,41.99640505,Unknown,Unknown,Unknown,Unknown,
СПА,Kapishtec,Naroden Front,21.4164328,41.9939731,Unknown,Unknown,Unknown,Unknown,
Antica,Debar Maalo,Дебарца,21.4196540361616,42.001137,Unknown,Unknown,Unknown,Unknown,
Get Caffe,Ostrovo,Vladimir Komarov,21.4496023,41.9919726,Unknown,Unknown,Unknown,Unknown,
Happy,Ostrovo,Bulevard Jane Sandanski,21.453477,41.9885027,Unknown,Unknown,Unknown,Unknown,
O La La,Centar,Bulevar Kuzman Josifovski Pitu,21.4414844,41.9931868,Unknown,Unknown,Unknown,Unknown,
7 Grama Espresso Studio,Debar Maalo,Наум Наумовски Борче,21.4242861,41.9987593,Unknown,Unknown,Unknown,Unknown,
Bratstvo,Dukjandzhik,Бојаџиска,21.4378319,42.0021215,Unknown,Unknown,Unknown,Unknown,
Restaurant ABC,Butel 2,Boca Ivanova,21.4409393,42.0277395,Unknown,Unknown,Unknown,Unknown,
Gjeltoria Palas,Dukjandzhik,Битпазарска,21.4383639,42.0018869,Unknown,Unknown,Unknown,Unknown,
Toto,Debar Maalo,Никола Тримпаре,21.4229663,41.9967339,Unknown,Unknown,Unknown,Unknown,
Teteks,Dukjandzhik,Евлија Челебија,21.4384905,42.002027,Unknown,Unknown,Unknown,Unknown,
